{"type": "FeatureCollection", "features": [ {"type": "Feature", "properties": {"norad_id": 31882, "name": "FENGYUN 1C DEB", "group": "fengyun-1c-debris", "lat": 3.9893597383751116, "lon": 87.58094331842162, "alt_km": 837.3682057544784, "timestamp": "2025-12-10T09:57:44.983671+00:00", "meta": {"OBJECT_NAME": "FENGYUN 1C DEB", "OBJECT_ID": "1999-025CKH", "EPOCH": "2025-12-04T12:04:11.131104", "MEAN_MOTION": 14.12940251, "ECCENTRICITY": 0.0035445, "INCLINATION": 98.9162, "RA_OF_ASC_NODE": 261.0675, "ARG_OF_PERICENTER": 248.9848, "MEAN_ANOMALY": 110.7531, "EPHEMERIS_TYPE": 0, "CLASSIFICATION_TYPE": "U", "NORAD_CAT_ID": 31882, "ELEMENT_SET_NO": 999, "REV_AT_EPOCH": 58520, "BSTAR": 0.0011941, "MEAN_MOTION_DOT": 2.193e-05, "MEAN_MOTION_DDOT": 0}, "tle": {"line1": "1 31882U 99025CKH 25338.50290661  .00002193  00000+0  11941-2 0  9999", "line2": "2 31882  98.9162 261.0675 0035445 248.9848 110.7531 14.12940251585207"}}, "geometry": {"type": "Point", "coordinates": [87.58094331842162, 3.9893597383751116]}}, {"type": "Feature", "properties": {"norad_id": 31883, "name": "FENGYUN 1C DEB", "group": "fengyun-1c-debris", "lat": 38.26417023078683, "lon": 88.00837694405654, "alt_km": 627.1347349379857, "timestamp": "2025-12-10T09:57:44.983681+00:00", "meta": {"OBJECT_NAME": "FENGYUN 1C DEB", "OBJECT_ID": "1999-025CKJ", "EPOCH": "2025-12-09T16:58:20.815968", "MEAN_MOTION": 14.67696286, "ECCENTRICITY": 0.0125127, "INCLINATION": 99.0273, "RA_OF_ASC_NODE": 260.0251, "ARG_OF_PERICENTER": 78.4321, "MEAN_ANOMALY": 283.0897, "EPHEMERIS_TYPE": 0, "CLASSIFICATION_TYPE": "U", "NORAD_CAT_ID": 31883, "ELEMENT_SET_NO": 999, "REV_AT_EPOCH": 97934, "BSTAR": 0.0010533, "MEAN_MOTION_DOT": 6.688e-05, "MEAN_MOTION_DDOT": 0}, "tle": {"line1": "1 31883U 99025CKJ 25343.70718537  .00006688  00000+0  10533-2 0  9994", "line2": "2 31883  99.0273 260.0251 0125127  78.4321 283.0897 14.67696286979348"}}, "geometry": {"type": "Point", "coordinates": [88.00837694405654, 38.26417023078683]}}, {"type": "Feature", "properties": {"norad_id": 31887, "name": "FENGYUN 1C DEB", "group": "fengyun-1c-debris", "lat": 3.273301140463759, "lon": 35.128272480733244, "alt_km": 685.9961696111613, "timestamp": "2025-12-10T09:57:44.983691+00:00", "meta": {"OBJECT_NAME": "FENGYUN 1C DEB", "OBJECT_ID": "1999-025CKN", "EPOCH": "2025-12-09T09:14:16.435680", "MEAN_MOTION": 14.57748959, "ECCENTRICITY": 0.00241735, "INCLINATION": 99.5336, "RA_OF_ASC_NODE": 34.5002, "ARG_OF_PERICENTER": 15.3067, "MEAN_ANOMALY": 344.8853, "EPHEMERIS_TYPE": 0, "CLASSIFICATION_TYPE": "U", "NORAD_CAT_ID": 31887, "ELEMENT_SET_NO": 999, "REV_AT_EPOCH": 96559, "BSTAR": 0.0014139857, "MEAN_MOTION_DOT": 6.433e-05, "MEAN_MOTION_DDOT": 0}, "tle": {"line1": "1 31887U 99025CKN 25343.38491245  .00006433  00000+0  14140-2 0  9992", "line2": "2 31887  99.5336  34.5002 0024173  15.3067 344.8853 14.57748959965595"}}, "geometry": {"type": "Point", "coordinates": [35.128272480733244, 3.273301140463759]}}, {"type": "Feature", "properties": {"norad_id": 31888, "name": "FENGYUN 1C DEB", "group": "fengyun-1c-debris", "lat": -54.15568060974769, "lon": 77.78619439664868, "alt_km": 773.4942210361569, "timestamp": "2025-12-10T09:57:44.983701+00:00", "meta": {"OBJECT_NAME": "FENGYUN 1C DEB", "OBJECT_ID": "1999-025CKP", "EPOCH": "2025-12-09T12:46:19.286688", "MEAN_MOTION": 14.33869368, "ECCENTRICITY": 0.0017415, "INCLINATION": 99.155, "RA_OF_ASC_NODE": 269.7513, "ARG_OF_PERICENTER": 227.0258, "MEAN_ANOMALY": 132.9465, "EPHEMERIS_TYPE": 0, "CLASSIFICATION_TYPE": "U", "NORAD_CAT_ID": 31888, "ELEMENT_SET_NO": 999, "REV_AT_EPOCH": 95591, "BSTAR": 0.0028784, "MEAN_MOTION_DOT": 7.988e-05, "MEAN_MOTION_DDOT": 0}, "tle": {"line1": "1 31888U 99025CKP 25343.53216767  .00007988  00000+0  28784-2 0  9999", "line2": "2 31888  99.1550 269.7513 0017415 227.0258 132.9465 14.33869368955916"}}, "geometry": {"type": "Point", "coordinates": [77.78619439664868, -54.15568060974769]}}, {"type": "Feature", "properties": {"norad_id": 31890, "name": "FENGYUN 1C DEB", "group": "fengyun-1c-debris", "lat": 63.51047877662913, "lon": -166.05953617251024, "alt_km": 888.3539906642536, "timestamp": "2025-12-10T09:57:44.983711+00:00", "meta": {"OBJECT_NAME": "FENGYUN 1C DEB", "OBJECT_ID": "1999-025CKR", "EPOCH": "2025-12-08T18:14:42.238176", "MEAN_MOTION": 14.1013043, "ECCENTRICITY": 0.00715209, "INCLINATION": 98.7187, "RA_OF_ASC_NODE": 354.4026, "ARG_OF_PERICENTER": 253.5892, "MEAN_ANOMALY": 105.7409, "EPHEMERIS_TYPE": 0, "CLASSIFICATION_TYPE": "U", "NORAD_CAT_ID": 31890, "ELEMENT_SET_NO": 999, "REV_AT_EPOCH": 64096, "BSTAR": 0.00024062308, "MEAN_MOTION_DOT": 3.92e-06, "MEAN_MOTION_DDOT": 0}, "tle": {"line1": "1 31890U 99025CKR 25342.76021109  .00000392  00000+0  24062-3 0  9998", "line2": "2 31890  98.7187 354.4026 0071520 253.5892 105.7409 14.10130430640964"}}, "geometry": {"type": "Point", "coordinates": [-166.05953617251024, 63.51047877662913]}}, {"type": "Feature", "properties": {"norad_id": 31891, "name": "FENGYUN 1C DEB", "group": "fengyun-1c-debris", "lat": 29.764539769067042, "lon": -5.869608793149233, "alt_km": 1166.2766265950986, "timestamp": "2025-12-10T09:57:44.983721+00:00", "meta": {"OBJECT_NAME": "FENGYUN 1C DEB", "OBJECT_ID": "1999-025CKS", "EPOCH": "2025-12-06T00:20:55.229568", "MEAN_MOTION": 13.66193809, "ECCENTRICITY": 0.0224822, "INCLINATION": 99.4024, "RA_OF_ASC_NODE": 355.2939, "ARG_OF_PERICENTER": 200.6432, "MEAN_ANOMALY": 158.5519, "EPHEMERIS_TYPE": 0, "CLASSIFICATION_TYPE": "U", "NORAD_CAT_ID": 31891, "ELEMENT_SET_NO": 999, "REV_AT_EPOCH": 92318, "BSTAR": 0.00081038713, "MEAN_MOTION_DOT": 7.52e-06, "MEAN_MOTION_DDOT": 0}, "tle": {"line1": "1 31891U 99025CKS 25340.01452812  .00000752  00000+0  81039-3 0  9991", "line2": "2 31891  99.4024 355.2939 0224822 200.6432 158.5519 13.66193809923188"}}, "geometry": {"type": "Point", "coordinates": [-5.869608793149233, 29.764539769067042]}}, {"type": "Feature", "properties": {"norad_id": 31892, "name": "FENGYUN 1C DEB", "group": "fengyun-1c-debris", "lat": 66.98762284004883, "lon": 131.3142446796551, "alt_km": 847.292240751266, "timestamp": "2025-12-10T09:57:44.983731+00:00", "meta": {"OBJECT_NAME": "FENGYUN 1C DEB", "OBJECT_ID": "1999-025CKT", "EPOCH": "2025-12-06T17:19:53.766912", "MEAN_MOTION": 14.41156255, "ECCENTRICITY": 0.01986119, "INCLINATION": 99.2881, "RA_OF_ASC_NODE": 149.9643, "ARG_OF_PERICENTER": 304.4066, "MEAN_ANOMALY": 53.8482, "EPHEMERIS_TYPE": 0, "CLASSIFICATION_TYPE": "U", "NORAD_CAT_ID": 31892, "ELEMENT_SET_NO": 999, "REV_AT_EPOCH": 64819, "BSTAR": 0.001005312, "MEAN_MOTION_DOT": 4.04e-05, "MEAN_MOTION_DDOT": 0}, "tle": {"line1": "1 31892U 99025CKT 25340.72215008  .00004040  00000+0  10053-2 0  9995", "line2": "2 31892  99.2881 149.9643 0198611 304.4066  53.8482 14.41156255648199"}}, "geometry": {"type": "Point", "coordinates": [131.3142446796551, 66.98762284004883]}}, {"type": "Feature", "properties": {"norad_id": 31893, "name": "FENGYUN 1C DEB", "group": "fengyun-1c-debris", "lat": -64.75689687006383, "lon": 102.65403968058355, "alt_km": 680.95797521025, "timestamp": "2025-12-10T09:57:44.983974+00:00", "meta": {"OBJECT_NAME": "FENGYUN 1C DEB", "OBJECT_ID": "1999-025CKU", "EPOCH": "2025-12-09T15:36:48.922272", "MEAN_MOTION": 14.63731512, "ECCENTRICITY": 0.0175189, "INCLINATION": 99.0701, "RA_OF_ASC_NODE": 301.6175, "ARG_OF_PERICENTER": 336.2241, "MEAN_ANOMALY": 205.7209, "EPHEMERIS_TYPE": 0, "CLASSIFICATION_TYPE": "U", "NORAD_CAT_ID": 31893, "ELEMENT_SET_NO": 999, "REV_AT_EPOCH": 98359, "BSTAR": 0.00073748, "MEAN_MOTION_DOT": 4.736e-05, "MEAN_MOTION_DDOT": 0}, "tle": {"line1": "1 31893U 99025CKU 25343.65056623  .00004736  00000+0  73748-3 0  9990", "line2": "2 31893  99.0701 301.6175 0175189 336.2241 205.7209 14.63731512983599"}}, "geometry": {"type": "Point", "coordinates": [102.65403968058355, -64.75689687006383]}}, {"type": "Feature", "properties": {"norad_id": 31895, "name": "FENGYUN 1C DEB", "group": "fengyun-1c-debris", "lat": 43.82339170275436, "lon": -157.72563879722208, "alt_km": 1001.8035051606412, "timestamp": "2025-12-10T09:57:44.983986+00:00", "meta": {"OBJECT_NAME": "FENGYUN 1C DEB", "OBJECT_ID": "1999-025CKW", "EPOCH": "2025-12-04T08:23:00.168864", "MEAN_MOTION": 13.75460226, "ECCENTRICITY": 0.02263483, "INCLINATION": 99.1028, "RA_OF_ASC_NODE": 7.6273, "ARG_OF_PERICENTER": 251.6022, "MEAN_ANOMALY": 106.0398, "EPHEMERIS_TYPE": 0, "CLASSIFICATION_TYPE": "U", "NORAD_CAT_ID": 31895, "ELEMENT_SET_NO": 999, "REV_AT_EPOCH": 61781, "BSTAR": 0.0039968239, "MEAN_MOTION_DOT": 4.593e-05, "MEAN_MOTION_DDOT": 0}, "tle": {"line1": "1 31895U 99025CKW 25338.34930751  .00004593  00000+0  39968-2 0  9991", "line2": "2 31895  99.1028   7.6273 0226348 251.6022 106.0398 13.75460226617811"}}, "geometry": {"type": "Point", "coordinates": [-157.72563879722208, 43.82339170275436]}}, {"type": "Feature", "properties": {"norad_id": 31898, "name": "FENGYUN 1C DEB", "group": "fengyun-1c-debris", "lat": -71.31367624977499, "lon": -124.0244903342284, "alt_km": 621.4349779912618, "timestamp": "2025-12-10T09:57:44.983996+00:00", "meta": {"OBJECT_NAME": "FENGYUN 1C DEB", "OBJECT_ID": "1999-025CKZ", "EPOCH": "2025-12-09T09:45:56.221344", "MEAN_MOTION": 14.68362334, "ECCENTRICITY": 0.01439261, "INCLINATION": 98.7065, "RA_OF_ASC_NODE": 207.9611, "ARG_OF_PERICENTER": 229.9634, "MEAN_ANOMALY": 128.887, "EPHEMERIS_TYPE": 0, "CLASSIFICATION_TYPE": "U", "NORAD_CAT_ID": 31898, "ELEMENT_SET_NO": 999, "REV_AT_EPOCH": 65663, "BSTAR": 0.0015942515, "MEAN_MOTION_DOT": 0.00010733, "MEAN_MOTION_DDOT": 0}, "tle": {"line1": "1 31898U 99025CKZ 25343.40690071  .00010733  00000+0  15943-2 0  9995", "line2": "2 31898  98.7065 207.9611 0143926 229.9634 128.8870 14.68362334656632"}}, "geometry": {"type": "Point", "coordinates": [-124.0244903342284, -71.31367624977499]}}]}